OBJECT_NAME,OBJECT_ID,EPOCH,MEAN_MOTION,ECCENTRICITY,INCLINATION,RA_OF_ASC_NODE,ARG_OF_PERICENTER,MEAN_ANOMALY,EPHEMERIS_TYPE,CLASSIFICATION_TYPE,NORAD_CAT_ID,ELEMENT_SET_NO,REV_AT_EPOCH,BSTAR,MEAN_MOTION_DOT,MEAN_MOTION_DDOT
STARLINK-37765,2026-122J,2026-06-17T03:33:54.514368,15.80876672,.0000528,97.2834,197.6244,101.0891,259.0437,0,U,69337,999,215,.89311E-3,.174887E-2,0
STARLINK-37788,2026-122K,2026-06-17T04:00:01.998720,15.71778332,.0001632,97.2835,197.6329,68.5187,11.4577,0,U,69338,999,335,-.23038E-1,-.2590102E-1,0
STARLINK-37743,2026-122L,2026-06-17T03:36:17.329248,15.80774145,.0000435,97.2831,197.6218,120.4420,239.6891,0,U,69339,999,215,-.38191E-4,-.7436E-4,0
STARLINK-37780,2026-122M,2026-06-17T03:34:52.257216,15.80846745,.0000873,97.2835,197.6232,81.5634,278.5734,0,U,69340,999,215,.837E-3,.16345E-2,0
STARLINK-37781,2026-122N,2026-06-17T04:00:01.998720,15.71982076,.0001608,97.2836,197.6247,62.7005,359.3281,0,U,69341,999,335,-.22551E-1,-.2561627E-1,0
STARLINK-37782,2026-122P,2026-06-17T04:00:01.998720,15.80931542,.0002609,97.2844,197.6640,124.7370,20.9470,0,U,69342,999,335,-.96908E-3,-.182949E-2,0
STARLINK-37776,2026-122Q,2026-06-17T04:00:01.998720,15.80816857,.0001378,97.2844,197.6654,91.0197,60.1419,0,U,69343,999,335,-.40329E-3,-.7672E-3,0
STARLINK-37786,2026-122R,2026-06-17T04:00:01.998720,15.77725745,.0001636,97.2846,197.6697,84.2095,76.9015,0,U,69344,999,335,-.18067E-1,-.2567223E-1,0
STARLINK-37785,2026-122S,2026-06-17T04:00:01.998720,15.80832901,.0001083,97.2844,197.6719,85.7159,81.5709,0,U,69345,999,335,-.12077E-3,-.23232E-3,0
STARLINK-37773,2026-122T,2026-06-17T04:00:01.998720,15.81287828,.0001756,97.2840,197.6689,76.4227,83.9573,0,U,69346,999,340,-.80301E-2,-.137424E-1,0
STARLINK-37744,2026-122U,2026-06-17T04:00:01.998720,15.69774157,.000168,97.2841,197.6540,77.8637,50.3049,0,U,69347,999,335,-.25247E-1,-.2606361E-1,0
STARLINK-37775,2026-122V,2026-06-17T04:00:01.998720,15.80806802,.000078,97.2842,197.6677,111.2644,47.0253,0,U,69348,999,335,-.6241E-3,-.118029E-2,0
STARLINK-37777,2026-122W,2026-06-17T03:19:49.010016,15.80820304,.0000676,97.2839,197.6387,69.5115,290.6226,0,U,69349,999,215,.97273E-3,.190341E-2,0
STARLINK-37779,2026-122X,2026-06-17T03:18:03.851712,15.80872510,.0000318,97.2842,197.6404,56.1488,303.9811,0,U,69350,999,215,.79283E-3,.154846E-2,0
STARLINK-37549,2026-122Y,2026-06-17T04:00:01.998720,15.76119096,.00019,97.2839,197.6610,96.0333,46.8708,0,U,69351,999,335,-.19445E-1,-.2571281E-1,0
STARLINK-37778,2026-122Z,2026-06-17T04:00:01.998720,15.78047270,.0001821,97.2838,197.6738,76.2813,94.2671,0,U,69352,999,335,-.17653E-1,-.2548894E-1,0
STARLINK-37651,2026-123A,2026-06-17T02:36:48.415680,15.80927141,.0000959,53.1582,242.2000,74.3257,285.7871,0,U,69353,999,202,.9051E-3,.182211E-2,0
STARLINK-37652,2026-123B,2026-06-17T00:00:02.000160,15.80804461,.0000984,53.1576,242.7589,99.2025,354.4899,0,U,69354,999,312,.55872E-3,.110646E-2,0
STARLINK-37593,2026-123C,2026-06-17T02:37:11.715168,15.80885527,.0001281,53.1581,242.2020,35.3521,324.7586,0,U,69355,999,202,.46811E-3,.92743E-3,0
STARLINK-37597,2026-123D,2026-06-17T04:05:53.079072,15.80907737,.0001169,53.1582,241.8736,111.7253,248.3894,0,U,69356,999,203,.61915E-3,.123461E-2,0
STARLINK-37598,2026-123E,2026-06-17T04:02:51.836064,15.80923726,.0000761,53.1585,241.8590,60.9471,299.1628,0,U,69357,999,203,.83918E-3,.168595E-2,0
STARLINK-37602,2026-123F,2026-06-17T04:00:01.998720,15.75240478,.0001112,53.1586,241.9351,74.6098,242.0570,0,U,69358,999,320,-.47776E-4,-.7956E-4,0
STARLINK-37600,2026-123G,2026-06-17T04:00:01.998720,15.75211575,.0001174,53.1653,241.8857,96.1298,244.4670,0,U,69359,999,320,.2814E-3,.42662E-3,0
STARLINK-37599,2026-123H,2026-06-17T04:00:01.998720,15.80817170,.0000979,53.1572,241.7465,102.2922,305.6908,0,U,69360,999,315,.66889E-3,.133027E-2,0
STARLINK-37039,2026-123J,2026-06-17T03:55:01.185888,15.80923072,.0000946,53.1581,241.8220,63.0271,297.0848,0,U,69361,999,203,.97855E-3,.197368E-2,0
STARLINK-37040,2026-123K,2026-06-17T04:00:01.998720,15.80837284,.0000884,53.1585,241.5765,77.8409,51.9626,0,U,69362,999,315,.45173E-3,.89236E-3,0
STARLINK-37582,2026-123L,2026-06-17T04:00:01.998720,15.75212639,.0001092,53.1587,241.7786,96.2079,295.9171,0,U,69363,999,315,.10174E-3,.14966E-3,0
STARLINK-37309,2026-123M,2026-06-17T04:00:01.998720,15.80831388,.0000845,53.1589,241.4563,83.7803,104.0465,0,U,69364,999,329,.60981E-3,.121125E-2,0
STARLINK-37436,2026-123N,2026-06-17T04:00:01.998720,15.80862811,.0001058,53.1591,241.4204,94.1717,111.2413,0,U,69365,999,329,.21766E-3,.4245E-3,0
STARLINK-37581,2026-123P,2026-06-17T04:00:01.998720,15.80848288,.0001439,53.1588,241.4644,74.0587,109.9621,0,U,69366,999,314,.35819E-3,.70495E-3,0
