STARLINK-37765          
1 69337U 26122J   26168.14854762  .00174887  00000+0  89311-3 0  9990
2 69337  97.2834 197.6244 0000528 101.0891 259.0437 15.80876672  2159
STARLINK-37788          
1 69338U 26122K   26168.16668980 -.02590102  00000+0 -23038-1 0  9996
2 69338  97.2835 197.6329 0001632  68.5187  11.4577 15.71778332  3359
STARLINK-37743          
1 69339U 26122L   26168.15020057 -.00007436  00000+0 -38191-4 0  9993
2 69339  97.2831 197.6218 0000435 120.4420 239.6891 15.80774145  2159
STARLINK-37780          
1 69340U 26122M   26168.14921594  .00163450  00000+0  83700-3 0  9992
2 69340  97.2835 197.6232 0000873  81.5634 278.5734 15.80846745  2155
STARLINK-37781          
1 69341U 26122N   26168.16668980 -.02561627  00000+0 -22551-1 0  9999
2 69341  97.2836 197.6247 0001608  62.7005 359.3281 15.71982076  3359
STARLINK-37782          
1 69342U 26122P   26168.16668980 -.00182949  00000+0 -96908-3 0  9993
2 69342  97.2844 197.6640 0002609 124.7370  20.9470 15.80931542  3355
STARLINK-37776          
1 69343U 26122Q   26168.16668980 -.00076720  00000+0 -40329-3 0  9999
2 69343  97.2844 197.6654 0001378  91.0197  60.1419 15.80816857  3356
STARLINK-37786          
1 69344U 26122R   26168.16668980 -.02567223  00000+0 -18067-1 0  9997
2 69344  97.2846 197.6697 0001636  84.2095  76.9015 15.77725745  3352
STARLINK-37785          
1 69345U 26122S   26168.16668980 -.00023232  00000+0 -12077-3 0  9990
2 69345  97.2844 197.6719 0001083  85.7159  81.5709 15.80832901  3358
STARLINK-37773          
1 69346U 26122T   26168.16668980 -.01374240  00000+0 -80301-2 0  9994
2 69346  97.2840 197.6689 0001756  76.4227  83.9573 15.81287828  3405
STARLINK-37744          
1 69347U 26122U   26168.16668980 -.02606361  00000+0 -25247-1 0  9995
2 69347  97.2841 197.6540 0001680  77.8637  50.3049 15.69774157  3351
STARLINK-37775          
1 69348U 26122V   26168.16668980 -.00118029  00000+0 -62410-3 0  9998
2 69348  97.2842 197.6677 0000780 111.2644  47.0253 15.80806802  3351
STARLINK-37777          
1 69349U 26122W   26168.13876169  .00190341  00000+0  97273-3 0  9996
2 69349  97.2839 197.6387 0000676  69.5115 290.6226 15.80820304  2154
STARLINK-37779          
1 69350U 26122X   26168.13754458  .00154846  00000+0  79283-3 0  9995
2 69350  97.2842 197.6404 0000318  56.1488 303.9811 15.80872510  2152
STARLINK-37549          
1 69351U 26122Y   26168.16668980 -.02571281  00000+0 -19445-1 0  9995
2 69351  97.2839 197.6610 0001900  96.0333  46.8708 15.76119096  3357
STARLINK-37778          
1 69352U 26122Z   26168.16668980 -.02548894  00000+0 -17653-1 0  9999
2 69352  97.2838 197.6738 0001821  76.2813  94.2671 15.78047270  3355
STARLINK-37651          
1 69353U 26123A   26168.10889370  .00182211  00000+0  90510-3 0  9991
2 69353  53.1582 242.2000 0000959  74.3257 285.7871 15.80927141  2023
STARLINK-37652          
1 69354U 26123B   26168.00002315  .00110646  00000+0  55872-3 0  9992
2 69354  53.1576 242.7589 0000984  99.2025 354.4899 15.80804461  3126
STARLINK-37593          
1 69355U 26123C   26168.10916337  .00092743  00000+0  46811-3 0  9992
2 69355  53.1581 242.2020 0001281  35.3521 324.7586 15.80885527  2024
STARLINK-37597          
1 69356U 26123D   26168.17075323  .00123461  00000+0  61915-3 0  9995
2 69356  53.1582 241.8736 0001169 111.7253 248.3894 15.80907737  2033
STARLINK-37598          
1 69357U 26123E   26168.16865551  .00168595  00000+0  83918-3 0  9999
2 69357  53.1585 241.8590 0000761  60.9471 299.1628 15.80923726  2034
STARLINK-37602          
1 69358U 26123F   26168.16668980 -.00007956  00000+0 -47776-4 0  9995
2 69358  53.1586 241.9351 0001112  74.6098 242.0570 15.75240478  3203
STARLINK-37600          
1 69359U 26123G   26168.16668980  .00042662  00000+0  28140-3 0  9990
2 69359  53.1653 241.8857 0001174  96.1298 244.4670 15.75211575  3201
STARLINK-37599          
1 69360U 26123H   26168.16668980  .00133027  00000+0  66889-3 0  9990
2 69360  53.1572 241.7465 0000979 102.2922 305.6908 15.80817170  3159
STARLINK-37039          
1 69361U 26123J   26168.16320817  .00197368  00000+0  97855-3 0  9990
2 69361  53.1581 241.8220 0000946  63.0271 297.0848 15.80923072  2037
STARLINK-37040          
1 69362U 26123K   26168.16668980  .00089236  00000+0  45173-3 0  9997
2 69362  53.1585 241.5765 0000884  77.8409  51.9626 15.80837284  3154
STARLINK-37582          
1 69363U 26123L   26168.16668980  .00014966  00000+0  10174-3 0  9999
2 69363  53.1587 241.7786 0001092  96.2079 295.9171 15.75212639  3152
STARLINK-37309          
1 69364U 26123M   26168.16668980  .00121125  00000+0  60981-3 0  9997
2 69364  53.1589 241.4563 0000845  83.7803 104.0465 15.80831388  3291
STARLINK-37436          
1 69365U 26123N   26168.16668980  .00042450  00000+0  21766-3 0  9999
2 69365  53.1591 241.4204 0001058  94.1717 111.2413 15.80862811  3292
STARLINK-37581          
1 69366U 26123P   26168.16668980  .00070495  00000+0  35819-3 0  9994
2 69366  53.1588 241.4644 0001439  74.0587 109.9621 15.80848288  3143
